NORAD_CAT_ID,OBJECT_NAME,OBJECT_TYPE,EPOCH,MEAN_MOTION,ECCENTRICITY,INCLINATION,RA_OF_ASC_NODE,ARG_OF_PERICENTER,MEAN_ANOMALY,BSTAR,MEAN_MOTION_DOT,MEAN_MOTION_DDOT,TLE_LINE0,TLE_LINE1,TLE_LINE2,SEMIMAJOR_AXIS,PERIOD,APOGEE,PERIGEE,DECAYED
52359.0,STARLINK-3853,PAYLOAD,2024-05-17 03:20:30,15.08854937,4.71e-05,53.216,288.9445,88.7052,271.3994,0.0016247,0.00025674,0.0,0 STARLINK-3853,1 52359U 22045AE  24138.13924757  .00025674  00000-0  16247-2 0  9999,2 52359  53.2160 288.9445 0000471  88.7052 271.3994 15.08854937115917,6917.835,95.437,540.026,539.374,0.0
52359.0,STARLINK-3853,PAYLOAD,2024-05-17 09:42:04,15.08838889,0.000227,53.2141,287.7576,81.6668,278.4581,0.00076894,0.00011971,0.0,0 STARLINK-3853,1 52359U 22045AE  24138.40421562  .00011971  00000-0  76894-3 0  9995,2 52359  53.2141 287.7576 0002270  81.6668 278.4581 15.08838889115954,6917.884,95.438,541.319,538.178,0.0
52359.0,STARLINK-3853,PAYLOAD,2024-05-17 19:14:22,15.08844226,0.0001861,53.2149,285.9736,80.9171,279.2032,0.00054309,8.367e-05,0.0,0 STARLINK-3853,1 52359U 22045AE  24138.80165324  .00008367  00000-0  54309-3 0  9992,2 52359  53.2149 285.9736 0001861  80.9171 279.2032 15.08844226116016,6917.867,95.437,541.02,538.445,0.0
52359.0,STARLINK-3853,PAYLOAD,2024-05-18 03:11:18,15.08838854,0.0002114,53.2138,284.4854,97.3332,262.79,0.00048428,7.427e-05,0.0,0 STARLINK-3853,1 52359U 22045AE  24139.13285384  .00007427  00000-0  48428-3 0  9999,2 52359  53.2138 284.4854 0002114  97.3332 262.7900 15.08838854116068,6917.884,95.438,541.211,538.286,0.0
52359.0,STARLINK-3853,PAYLOAD,2024-05-18 14:18:59,15.08859983,0.0001937,53.2118,282.4035,88.5611,271.5603,0.0006535,0.00010133,0.0,0 STARLINK-3853,1 52359U 22045AE  24139.59652679  .00010133  00000-0  65350-3 0  9995,2 52359  53.2118 282.4035 0001937  88.5611 271.5603 15.08859983116131,6917.819,95.436,541.024,538.344,0.0
52359.0,STARLINK-3853,PAYLOAD,2024-05-18 15:54:22,15.08862495,0.000153,53.21,282.1053,98.9524,261.1642,0.00072732,0.00011313,0.0,0 STARLINK-3853,1 52359U 22045AE  24139.66276430  .00011313  00000-0  72732-3 0  9993,2 52359  53.2100 282.1053 0001530  98.9524 261.1642 15.08862495116147,6917.812,95.436,540.735,538.618,0.0
52359.0,STARLINK-3853,PAYLOAD,2024-05-19 03:02:04,15.08847051,0.0001105,53.2132,280.0217,89.8793,270.2326,0.00022778,3.34e-05,0.0,0 STARLINK-3853,1 52359U 22045AE  24140.12644511  .00003340  00000-0  22778-3 0  9991,2 52359  53.2132 280.0217 0001105  89.8793 270.2326 15.08847051116215,6917.859,95.437,540.488,538.959,0.0
52359.0,STARLINK-3853,PAYLOAD,2024-05-19 14:09:47,15.08815747,0.0001792,53.2141,277.9433,73.1886,286.9303,-0.00033852,-5.668e-05,0.0,0 STARLINK-3853,1 52359U 22045AE  24140.59013818 -.00005668  00000-0 -33852-3 0  9994,2 52359  53.2141 277.9433 0001792  73.1886 286.9303 15.08815747116284,6917.955,95.439,541.059,538.58,0.0
52359.0,STARLINK-3853,PAYLOAD,2024-05-19 18:55:57,15.08820294,0.0001714,53.2157,277.0494,80.269,279.8496,0.00027926,4.157e-05,0.0,0 STARLINK-3853,1 52359U 22045AE  24140.78886151  .00004157  00000-0  27926-3 0  9998,2 52359  53.2157 277.0494 0001714  80.2690 279.8496 15.08820294116316,6917.941,95.439,540.991,538.62,0.0
52359.0,STARLINK-3853,PAYLOAD,2024-05-20 12:25:12,15.08866495,0.0001685,53.2158,273.7796,63.4153,296.7012,0.0019661,0.00031164,0.0,0 STARLINK-3853,1 52359U 22045AE  24141.51750110  .00031164  00000-0  19661-2 0  9999,2 52359  53.2158 273.7796 0001685  63.4153 296.7012 15.08866495116426,6917.799,95.436,540.83,538.499,0.0
52359.0,STARLINK-3853,PAYLOAD,2024-05-20 14:00:35,15.08872021,0.0001552,53.217,273.4813,65.6486,294.4668,0.0020741,0.00032905,0.0,0 STARLINK-3853,1 52359U 22045AE  24141.58373931  .00032905  00000-0  20741-2 0  9993,2 52359  53.2170 273.4813 0001552  65.6486 294.4668 15.08872021116438,6917.783,95.436,540.721,538.574,0.0
52359.0,STARLINK-3853,PAYLOAD,2024-05-21 12:15:58,15.08850341,0.0003151,53.2167,269.3095,140.9368,219.1852,0.0010683,0.0001676,0.0,0 STARLINK-3853,1 52359U 22045AE  24142.51109109  .00016760  00000-0  10683-2 0  9996,2 52359  53.2167 269.3095 0003151 140.9368 219.1852 15.08850341116578,6917.849,95.437,541.894,537.534,0.0
52359.0,STARLINK-3853,PAYLOAD,2024-05-21 13:51:21,15.08860467,0.0001379,53.2178,269.0208,83.0477,277.0672,0.00068495,0.00010636,0.0,0 STARLINK-3853,1 52359U 22045AE  24142.57733327  .00010636  00000-0  68495-3 0  9998,2 52359  53.2178 269.0208 0001379  83.0477 277.0672 15.08860467116585,6917.818,95.436,540.637,538.729,0.0
52359.0,STARLINK-3853,PAYLOAD,2024-05-21 15:26:44,15.08855852,0.0001294,53.2177,268.7235,76.9838,283.1298,0.0015106,0.00023845,0.0,0 STARLINK-3853,1 52359U 22045AE  24142.64357470  .00023845  00000-0  15106-2 0  9993,2 52359  53.2177 268.7235 0001294  76.9838 283.1298 15.08855852116593,6917.832,95.437,540.592,538.802,0.0
52359.0,STARLINK-3853,PAYLOAD,2024-05-22 12:06:45,15.08850213,0.0001416,53.2176,264.8573,115.684,244.4298,0.0011047,0.00017342,0.0,0 STARLINK-3853,1 52359U 22045AE  24143.50469321  .00017342  00000-0  11047-2 0  9993,2 52359  53.2176 264.8573 0001416 115.6840 244.4298 15.08850213116725,6917.849,95.437,540.694,538.735,0.0
52359.0,STARLINK-3853,PAYLOAD,2024-05-23 13:32:56,15.08835897,0.000123,53.2164,260.1008,85.0447,275.0685,0.00069062,0.00010719,0.0,0 STARLINK-3853,1 52359U 22045AE  24144.56454404  .00010719  00000-0  69062-3 0  9998,2 52359  53.2164 260.1008 0001230  85.0447 275.0685 15.08835897116889,6917.893,95.438,540.609,538.907,0.0
52359.0,STARLINK-3853,PAYLOAD,2024-05-23 18:19:06,15.08835136,0.0001213,53.2161,259.2063,85.4822,274.6308,0.00044515,6.803e-05,0.0,0 STARLINK-3853,1 52359U 22045AE  24144.76326422  .00006803  00000-0  44515-3 0  9993,2 52359  53.2161 259.2063 0001213  85.4822 274.6308 15.08835136116915,6917.895,95.438,540.599,538.921,0.0
52359.0,STARLINK-3853,PAYLOAD,2024-05-24 13:23:42,15.08868566,0.0001393,53.2159,255.6408,110.4478,249.6664,0.001023,0.00016043,0.0,0 STARLINK-3853,1 52359U 22045AE  24145.55813575  .00016043  00000-0  10230-2 0  9994,2 52359  53.2159 255.6408 0001393 110.4478 249.6664 15.08868566117034,6917.793,95.436,540.622,538.694,0.0
52359.0,STARLINK-3853,PAYLOAD,2024-05-24 16:34:28,15.088805,0.0001254,53.2157,255.0442,108.8577,251.2551,0.0012244,0.00019274,0.0,0 STARLINK-3853,1 52359U 22045AE  24145.69061230  .00019274  00000-0  12244-2 0  9998,2 52359  53.2157 255.0442 0001254 108.8577 251.2551 15.08880500117059,6917.757,95.435,540.489,538.754,0.0
52359.0,STARLINK-3853,PAYLOAD,2024-05-25 00:31:24,15.08830836,5.25e-05,53.215,253.5587,86.4414,273.6638,-0.00062242,-0.00010177,0.0,0 STARLINK-3853,1 52359U 22045AE  24146.02181448 -.00010177  00000-0 -62242-3 0  9999,2 52359  53.2150 253.5587 0000525  86.4414 273.6638 15.08830836117103,6917.908,95.438,540.137,539.41,0.0
52359.0,STARLINK-3853,PAYLOAD,2024-05-25 13:14:31,15.08820479,0.000121,53.2144,251.1813,77.4792,282.6335,-0.00034262,-5.734e-05,0.0,0 STARLINK-3853,1 52359U 22045AE  24146.55174787 -.00005734  00000-0 -34262-3 0  9999,2 52359  53.2144 251.1813 0001210  77.4792 282.6335 15.08820479117187,6917.94,95.439,540.642,538.968,0.0
52359.0,STARLINK-3853,PAYLOAD,2024-05-26 00:22:13,15.08834393,0.0001008,53.2159,249.0996,82.5121,277.5985,0.00040701,6.195e-05,0.0,0 STARLINK-3853,1 52359U 22045AE  24147.01542967  .00006195  00000-0  40701-3 0  9995,2 52359  53.2159 249.0996 0001008  82.5121 277.5985 15.08834393117251,6917.898,95.438,540.46,539.065,0.0
52359.0,STARLINK-3853,PAYLOAD,2024-05-26 13:05:18,15.08859254,0.000153,53.2157,246.7214,63.3506,296.7642,0.0013476,0.00021235,0.0,0 STARLINK-3853,1 52359U 22045AE  24147.54534945  .00021235  00000-0  13476-2 0  9990,2 52359  53.2157 246.7214 0001530  63.3506 296.7642 15.08859254117335,6917.822,95.436,540.745,538.628,0.0
52359.0,STARLINK-3853,PAYLOAD,2024-05-27 00:12:59,15.08862277,0.0001939,53.2145,244.6453,40.8857,319.2281,0.00084291,0.00013161,0.0,0 STARLINK-3853,1 52359U 22045AE  24148.00902608  .00013161  00000-0  84291-3 0  9990,2 52359  53.2145 244.6453 0001939  40.8857 319.2281 15.08862277117403,6917.812,95.436,541.019,538.336,0.0
52359.0,STARLINK-3853,PAYLOAD,2024-05-27 11:20:41,15.08854088,0.0001445,53.216,242.5586,69.7182,290.3966,0.00044534,6.809e-05,0.0,0 STARLINK-3853,1 52359U 22045AE  24148.47270403  .00006809  00000-0  44534-3 0  9999,2 52359  53.2160 242.5586 0001445  69.7182 290.3966 15.08854088117474,6917.837,95.437,540.702,538.703,0.0
52359.0,STARLINK-3853,PAYLOAD,2024-05-28 12:46:51,15.08844537,0.0001342,53.2153,237.7964,86.6863,273.4283,0.00012437,1.692e-05,0.0,0 STARLINK-3853,1 52359U 22045AE  24149.53254298  .00001692  00000-0  12437-3 0  9993,2 52359  53.2153 237.7964 0001342  86.6863 273.4283 15.08844537117632,6917.867,95.437,540.66,538.803,0.0
52359.0,STARLINK-3853,PAYLOAD,2024-05-29 11:02:15,15.08840685,0.0001364,53.2154,233.6335,94.8219,265.2929,0.00014779,2.065e-05,0.0,0 STARLINK-3853,1 52359U 22045AE  24150.45990326  .00002065  00000-0  14779-3 0  9991,2 52359  53.2154 233.6335 0001364  94.8219 265.2929 15.08840685117771,6917.878,95.438,540.687,538.8,0.0
52359.0,STARLINK-3853,PAYLOAD,2024-05-30 10:53:03,15.0883536,0.0001417,53.2165,229.1817,103.9878,256.1272,0.00011578,1.555e-05,0.0,0 STARLINK-3853,1 52359U 22045AE  24151.45350784  .00001555  00000-0  11578-3 0  9997,2 52359  53.2165 229.1817 0001417 103.9878 256.1272 15.08835360117921,6917.895,95.438,540.74,538.779,0.0
52359.0,STARLINK-3853,PAYLOAD,2024-05-30 14:03:49,15.08842967,0.000129,53.217,228.5829,94.1494,265.9646,0.00013542,1.868e-05,0.0,0 STARLINK-3853,1 52359U 22045AE  24151.58598593  .00001868  00000-0  13542-3 0  9993,2 52359  53.2170 228.5829 0001290  94.1494 265.9646 15.08842967117943,6917.871,95.437,540.629,538.844,0.0
52359.0,STARLINK-3853,PAYLOAD,2024-05-31 12:19:12,15.08848377,0.0001373,53.2164,224.4171,77.2816,282.8329,0.00020388,2.959e-05,0.0,0 STARLINK-3853,1 52359U 22045AE  24152.51334279  .00002959  00000-0  20388-3 0  9994,2 52359  53.2164 224.4171 0001373  77.2816 282.8329 15.08848377118086,6917.855,95.437,540.67,538.77,0.0
